#aV2011 11 29  0  0   .00000000      96 DD+AD WGS84 FIT  NGA
## 1664 172800.00000000   900.00000000 55894  .0000000000000
+   31     1  2  3  4  5  6  7  8  9 10 11 12 13 14 15 16 17
+         18 19 20 21 22 23 25 26 27 28 29 30 31 32  0  0  0
+          0  0  0  0  0  0  0  0  0  0  0  0  0  0  0  0  0
+          0  0  0  0  0  0  0  0  0  0  0  0  0  0  0  0  0
+          0  0  0  0  0  0  0  0  0  0  0  0  0  0  0  0  0
++         0  0  0  0  0  0  0  0  0  0  0  0  0  0  0  0  0
++         0  0  0  0  0  0  0  0  0  0  0  0  0  0  0  0  0
++         0  0  0  0  0  0  0  0  0  0  0  0  0  0  0  0  0
++         0  0  0  0  0  0  0  0  0  0  0  0  0  0  0  0  0
++         0  0  0  0  0  0  0  0  0  0  0  0  0  0  0  0  0
%c cc cc ccc ccc cccc cccc cccc cccc ccccc ccccc ccccc ccccc
%c cc cc ccc ccc cccc cccc cccc cccc ccccc ccccc ccccc ccccc
%f  0.0000000  0.000000000  0.00000000000  0.000000000000000
%f  0.0000000  0.000000000  0.00000000000  0.000000000000000
%i    0    0    0    0      0      0      0      0         0
%i    0    0    0    0      0      0      0      0         0
/*      NGA, ST. LOUIS,MO.                                  
/*   EPHEMERIS COMPUTED FROM  3 DAYS OF DATA                
/* CCCCCCCCCCCCCCCCCCCCCCCCCCCCCCCCCCCCCCCCCCCCCCCCCCCCCCCCC
/* CCCCCCCCCCCCCCCCCCCCCCCCCCCCCCCCCCCCCCCCCCCCCCCCCCCCCCCCC
*  2011 11 29 22 15   .00000000                                                 
P  1 -10016.207997  20791.658943 -13156.723932    119.479868                    
V  1 -14124.238131   9168.457921  25279.678064       .185165                    
P  2  22072.023593 -12212.299772  -7365.995544    367.957382                    
V  2  -4759.050169   9161.340475 -29628.625623       .017620                    
P  3 -13632.445048   8229.547791  20777.971806    801.671686                    
V  3  -9130.037405 -26046.400584   4521.143392       .051452                    
P  4  20473.564546   -703.127831 -17317.542882     18.669404                    
V  4 -15171.679997  15313.720391 -18483.769559       .112953                    
P  5  19955.051603  -5503.710988  16695.667301   -251.634252                    
V  5  19350.626690   8878.803823 -20053.624566      -.048752                    
P  6 -15463.752121   3249.066819  21484.377405      9.262655                    
V  6  -6397.561989 -26291.949319   -372.712140       .048145                    
P  7   3824.355192  15491.990254  21207.099395     40.309914                    
V  7 -21175.589415  16588.534794  -8543.198337       .022949                    
P  8  13616.943619   7546.126976  21671.492887       .135809                    
V  8 -22161.194354  15739.938151   7910.922977       .000881                    
P  9  12953.610817 -20833.977808 -10755.268023    121.673145                    
V  9  10734.013216  -7174.909001  28250.140095       .025303                    
P 10  24995.356933   9603.199016   -102.754795    -20.588494                    
V 10   -892.362955   2758.033248 -31206.599214      -.011938                    
P 11 -11152.298585  23449.805939  -5046.464703   -208.595050                    
V 11  -7733.400178   2108.458864  29327.271725      -.035224                    
P 12   3406.306304 -14538.316201 -21964.312743     37.698867                    
V 12  26059.447048   9822.264950  -2291.198554       .022774                    
P 13   4779.633697  25820.812804   3549.673460    238.865175                    
V 13  -1568.639364   4842.803694 -31976.361217      -.020007                    
P 14 -13993.906553 -12808.893860 -18472.176015    183.563638                    
V 14  -1673.612364 -23690.172247  17388.665300       .017283                    
P 15   5854.372529 -21694.834706  14015.958536    -97.993298                    
V 15   6110.347545  17015.878390  23988.925022       .009960                    
P 16 -20599.593669   3713.587780  16538.708329   -211.451243                    
V 16 -18830.331079  -8965.579621 -21171.790600      -.019519                    
P 17  14305.519630  14158.928315 -17301.352030    163.184100                    
V 17   1691.081591  22161.164294  19129.468176      -.019398                    
P 18 -15669.292625 -16850.620653  13911.203298    169.497595                    
V 18  16843.421538   3584.481856  23537.178484       .018415                    
P 19  -9230.791733  19134.627561  15673.750722   -210.058504                    
V 19  -4110.673634 -19816.910483  22085.792512      -.039698                    
P 20  -2698.208720  15772.844422 -21352.679145     57.046576                    
V 20 -25734.733101  -7746.034140  -2415.519102       .007396                    
P 21  -8987.302645 -13367.682810  21532.491130   -187.712167                    
V 21  20624.185598 -16595.228145  -2332.733253      -.024591                    
P 22 -24476.791530 -10384.038265   1489.129886    143.258860                    
V 22   2880.676193  -2870.595127  30894.040933       .000696                    
P 23   -234.268195  25557.543073  -6468.916749    255.097077                    
V 23  -4301.954492  -7720.573226 -30572.205222      -.032734                    
P 25  -8257.775711 -16692.919330 -18970.881102     29.031058                    
V 25  23124.644796   6603.576701 -15863.447787       .009387                    
P 26  12498.621899 -10397.762884  20311.381469   -243.851768                    
V 26   3714.133232  26967.845503  11567.472404      -.136465                    
P 27  17796.693975 -19080.588944  -2925.444945    330.777439                    
V 27   5071.186931  -1211.425321  32198.723334       .038419                    
P 28  22846.519877  13045.758553   5056.914198     88.671092                    
V 28  -6007.026250   -333.469777  31106.744870       .035173                    
P 29  -5554.676651 -25855.903206   2743.158459    261.767165                    
V 29   2216.518013  -3746.385132 -31511.404807       .032758                    
P 30 -25856.734067  -2674.025136   5141.755913     36.436768                    
V 30  -6104.461899  -4468.628878 -30783.529755      -.102562                    
P 31 -21364.189854   4534.912762 -15059.950278    176.048616                    
V 31  13971.602888 -13495.513959 -23347.700762       .050143                    
P 32 -11291.896978  11190.819778 -20966.839256   -369.559562                    
V 32 -24427.736236 -12205.514863   7015.040141      -.059301                    
EOF
